OBJECT_NAME,OBJECT_ID,EPOCH,MEAN_MOTION,ECCENTRICITY,INCLINATION,RA_OF_ASC_NODE,ARG_OF_PERICENTER,MEAN_ANOMALY,EPHEMERIS_TYPE,CLASSIFICATION_TYPE,NORAD_CAT_ID,ELEMENT_SET_NO,REV_AT_EPOCH,BSTAR,MEAN_MOTION_DOT,MEAN_MOTION_DDOT
EYESAT A (AO-27),1993-061C,2026-06-18T16:16:23.347200,14.30942642,.0009544,98.6880,237.0911,95.9420,264.2850,0,U,22825,999,70721,.44468E-4,.72E-6,0
ITAMSAT (IO-26),1993-061D,2026-06-18T10:44:07.323936,14.31369493,.001006,98.6829,236.7780,81.6233,278.6090,0,U,22826,999,70749,.45886E-4,.77E-6,0
RADIO ROSTO (RS15),1994-085A,2026-06-18T14:58:07.296384,11.27583454,.015598,64.8186,300.8928,3.6110,356.5903,0,U,23439,999,29606,.42691E-4,-.41E-6,0
JAS-2 (FO-29),1996-046B,2026-06-18T01:12:39.948768,13.53274469,.0350914,98.5238,17.8043,94.1986,269.9331,0,U,24278,999,47328,.30027018E-4,-.3E-7,0
FORTE,1997-047A,2026-06-18T15:15:42.783840,14.27945625,.0024622,69.9539,10.7488,275.5914,84.2400,0,U,24920,999,49889,.68349E-4,.112E-5,0
TECHSAT 1B (GO-32),1998-043D,2026-06-18T16:19:10.159680,14.24428642,.0001133,99.0067,162.4763,159.7014,200.4209,0,U,25397,999,45154,.35731E-4,.36E-6,0
ISS (ZARYA),1998-067A,2026-06-18T11:30:33.585696,15.49298053,.0004755,51.6334,293.6965,201.5062,158.5728,0,U,25544,999,57195,.16794E-3,.891E-4,0
IMAGE,2000-017A,2026-06-11T08:17:58.695072,1.68665984,.7436383,94.2241,315.2958,288.4674,8.8959,0,U,26113,999,16140,.22926E-1,.11E-6,0
CLUSTER II-FM7 (SAMBA),2000-041A,2026-06-19T08:52:12.410112,0.44833363,.9058303,149.9200,51.3283,268.5109,359.4853,0,U,26410,999,2032,0,.4714E-4,0
CLUSTER II-FM8 (TANGO),2000-045B,2026-06-15T04:30:08.872416,0.44418308,.90570043,150.1504,51.7507,268.7261,2.8044,0,U,26464,999,2030,0,.11725E-3,0
ODIN,2001-007A,2026-06-18T16:21:46.630080,15.76258882,.0006625,97.3818,210.7208,142.4379,217.7350,0,U,26702,999,38963,.96741E-3,.153947E-2,0
OMNI-M1,2001-026A,2026-06-16T05:01:03.889056,3.92401638,.0014194,44.8307,245.4893,53.4474,306.7446,0,U,26857,999,20553,0,-.1E-7,0
PCSAT (NO-44),2001-043C,2026-06-18T11:40:22.969344,14.31956504,.000608,67.0504,240.9116,264.6354,95.4054,0,U,26931,999,29063,.59455E-4,.76E-6,0
PROBA-1,2001-049B,2026-06-18T17:30:47.158272,15.07496952,.0056476,97.9594,178.3162,116.7708,243.9313,0,U,26958,999,34385,.62372E-4,.909E-5,0
SAUDISAT 1C (SO-50),2002-058C,2026-06-18T08:51:28.340928,14.83049237,.0075194,64.5511,125.3282,262.2562,97.0002,0,U,27607,999,26463,.11046E-3,.788E-5,0
CORIOLIS,2003-001A,2026-06-18T14:33:20.066400,14.19945150,.001348,98.7124,176.4696,204.4385,155.6153,0,U,27640,999,21442,.53491E-4,.7E-6,0
CUTE-1 (CO-55),2003-031E,2026-06-18T00:29:44.023488,14.24336174,.00096097,98.6736,177.5689,175.5784,184.5482,0,U,27844,999,19179,.11471233E-3,.221E-5,0
CUBESAT XI-IV (CO-57),2003-031J,2026-06-17T22:32:30.413760,14.23621196,.0009073,98.6765,177.2007,194.7196,165.3719,0,U,27848,999,19148,.10079477E-3,.186E-5,0
MOZHAETS 4 (RS22),2003-042A,2026-06-18T18:33:43.080192,14.73470910,.0009914,98.3464,354.1766,264.1239,154.0055,0,U,27939,999,21578,.17574E-3,.1088E-4,0
